{"type": "FeatureCollection", "features": [ {"type": "Feature", "properties": {"norad_id": 66337, "name": "STARLINK-34783", "group": "last-30-days", "lat": 42.471017458402166, "lon": 105.51207520391495, "alt_km": 437.17856932413815, "timestamp": "2025-12-05T16:54:13.484283+00:00", "meta": {"OBJECT_NAME": "STARLINK-34783", "OBJECT_ID": "2025-253U", "EPOCH": "2025-12-05T04:06:11.484864", "MEAN_MOTION": 15.4074624, "ECCENTRICITY": 6.071e-05, "INCLINATION": 43.0001, "RA_OF_ASC_NODE": 29.3705, "ARG_OF_PERICENTER": 244.7853, "MEAN_ANOMALY": 115.2941, "EPHEMERIS_TYPE": 0, "CLASSIFICATION_TYPE": "U", "NORAD_CAT_ID": 66337, "ELEMENT_SET_NO": 999, "REV_AT_EPOCH": 575, "BSTAR": 0.0028759296, "MEAN_MOTION_DOT": 0.00121957, "MEAN_MOTION_DDOT": 0}, "tle": {"line1": "1 66337U 25253U   25339.17096626  .00121957  00000+0  28759-2 0  9998", "line2": "2 66337  43.0001  29.3705 0000607 244.7853 115.2941 15.40746240  5750"}}, "geometry": {"type": "Point", "coordinates": [105.51207520391495, 42.471017458402166]}}, {"type": "Feature", "properties": {"norad_id": 66338, "name": "STARLINK-35477", "group": "last-30-days", "lat": 28.569659583939714, "lon": 62.141911875129225, "alt_km": 439.91243783996106, "timestamp": "2025-12-05T16:54:13.484292+00:00", "meta": {"OBJECT_NAME": "STARLINK-35477", "OBJECT_ID": "2025-253V", "EPOCH": "2025-12-05T04:15:52.086816", "MEAN_MOTION": 15.40685248, "ECCENTRICITY": 0.00010908, "INCLINATION": 43.0005, "RA_OF_ASC_NODE": 29.421, "ARG_OF_PERICENTER": 254.8175, "MEAN_ANOMALY": 105.2561, "EPHEMERIS_TYPE": 0, "CLASSIFICATION_TYPE": "U", "NORAD_CAT_ID": 66338, "ELEMENT_SET_NO": 999, "REV_AT_EPOCH": 575, "BSTAR": 0.0019033954, "MEAN_MOTION_DOT": 0.00080004, "MEAN_MOTION_DDOT": 0}, "tle": {"line1": "1 66338U 25253V   25339.17768619  .00080004  00000+0  19034-2 0  9990", "line2": "2 66338  43.0005  29.4210 0001090 254.8175 105.2561 15.40685248  5750"}}, "geometry": {"type": "Point", "coordinates": [62.141911875129225, 28.569659583939714]}}, {"type": "Feature", "properties": {"norad_id": 66339, "name": "STARLINK-35443", "group": "last-30-days", "lat": -9.375211836176414, "lon": -143.771523059587, "alt_km": 444.49822750649037, "timestamp": "2025-12-05T16:54:13.484302+00:00", "meta": {"OBJECT_NAME": "STARLINK-35443", "OBJECT_ID": "2025-253W", "EPOCH": "2025-12-05T06:00:02.000160", "MEAN_MOTION": 15.40718327, "ECCENTRICITY": 0.00018463, "INCLINATION": 43.0005, "RA_OF_ASC_NODE": 28.6417, "ARG_OF_PERICENTER": 254.0754, "MEAN_ANOMALY": 296.9249, "EPHEMERIS_TYPE": 0, "CLASSIFICATION_TYPE": "U", "NORAD_CAT_ID": 66339, "ELEMENT_SET_NO": 999, "REV_AT_EPOCH": 577, "BSTAR": -0.0015372135, "MEAN_MOTION_DOT": -0.00064021, "MEAN_MOTION_DDOT": 0}, "tle": {"line1": "1 66339U 25253W   25339.25002315 -.00064021  00000+0 -15372-2 0  9998", "line2": "2 66339  43.0005  28.6417 0001846 254.0754 296.9249 15.40718327  5773"}}, "geometry": {"type": "Point", "coordinates": [-143.771523059587, -9.375211836176414]}}, {"type": "Feature", "properties": {"norad_id": 66340, "name": "STARLINK-35218", "group": "last-30-days", "lat": -41.11341039437909, "lon": -43.683895968210635, "alt_km": 416.35351655593695, "timestamp": "2025-12-05T16:54:13.484311+00:00", "meta": {"OBJECT_NAME": "STARLINK-35218", "OBJECT_ID": "2025-253X", "EPOCH": "2025-12-05T03:18:43.891200", "MEAN_MOTION": 15.50623866, "ECCENTRICITY": 0.00020086, "INCLINATION": 43.0006, "RA_OF_ASC_NODE": 29.1148, "ARG_OF_PERICENTER": 276.9945, "MEAN_ANOMALY": 83.0687, "EPHEMERIS_TYPE": 0, "CLASSIFICATION_TYPE": "U", "NORAD_CAT_ID": 66340, "ELEMENT_SET_NO": 999, "REV_AT_EPOCH": 575, "BSTAR": 0.0025259709, "MEAN_MOTION_DOT": 0.0015098, "MEAN_MOTION_DDOT": 0}, "tle": {"line1": "1 66340U 25253X   25339.13800800  .00150980  00000+0  25260-2 0  9997", "line2": "2 66340  43.0006  29.1148 0002008 276.9945  83.0687 15.50623866  5752"}}, "geometry": {"type": "Point", "coordinates": [-43.683895968210635, -41.11341039437909]}}, {"type": "Feature", "properties": {"norad_id": 66341, "name": "STARLINK-35522", "group": "last-30-days", "lat": -25.18542184633771, "lon": -123.7253887083428, "alt_km": 446.4078031679064, "timestamp": "2025-12-05T16:54:13.484320+00:00", "meta": {"OBJECT_NAME": "STARLINK-35522", "OBJECT_ID": "2025-253Y", "EPOCH": "2025-12-05T06:00:02.000160", "MEAN_MOTION": 15.4061582, "ECCENTRICITY": 0.00013911, "INCLINATION": 43.0007, "RA_OF_ASC_NODE": 28.5861, "ARG_OF_PERICENTER": 301.4663, "MEAN_ANOMALY": 274.4137, "EPHEMERIS_TYPE": 0, "CLASSIFICATION_TYPE": "U", "NORAD_CAT_ID": 66341, "ELEMENT_SET_NO": 999, "REV_AT_EPOCH": 582, "BSTAR": 0.0016584385, "MEAN_MOTION_DOT": 0.00069411, "MEAN_MOTION_DDOT": 0}, "tle": {"line1": "1 66341U 25253Y   25339.25002315  .00069411  00000+0  16584-2 0  9993", "line2": "2 66341  43.0007  28.5861 0001391 301.4663 274.4137 15.40615820  5828"}}, "geometry": {"type": "Point", "coordinates": [-123.7253887083428, -25.18542184633771]}}, {"type": "Feature", "properties": {"norad_id": 66342, "name": "STARLINK-35535", "group": "last-30-days", "lat": 23.5941080949745, "lon": 178.19345243649695, "alt_km": 440.50816585392204, "timestamp": "2025-12-05T16:54:13.484330+00:00", "meta": {"OBJECT_NAME": "STARLINK-35535", "OBJECT_ID": "2025-253Z", "EPOCH": "2025-12-05T06:00:02.000160", "MEAN_MOTION": 15.40726114, "ECCENTRICITY": 0.00019218, "INCLINATION": 43.0003, "RA_OF_ASC_NODE": 28.7621, "ARG_OF_PERICENTER": 235.4739, "MEAN_ANOMALY": 265.7603, "EPHEMERIS_TYPE": 0, "CLASSIFICATION_TYPE": "U", "NORAD_CAT_ID": 66342, "ELEMENT_SET_NO": 999, "REV_AT_EPOCH": 572, "BSTAR": -0.0015802598, "MEAN_MOTION_DOT": -0.00065808, "MEAN_MOTION_DDOT": 0}, "tle": {"line1": "1 66342U 25253Z   25339.25002315 -.00065808  00000+0 -15803-2 0  9995", "line2": "2 66342  43.0003  28.7621 0001921 235.4739 265.7603 15.40726114  5729"}}, "geometry": {"type": "Point", "coordinates": [178.19345243649695, 23.5941080949745]}}, {"type": "Feature", "properties": {"norad_id": 66343, "name": "STARLINK-35467", "group": "last-30-days", "lat": 40.74788103418879, "lon": 138.63671420400485, "alt_km": 438.7657781394437, "timestamp": "2025-12-05T16:54:13.484340+00:00", "meta": {"OBJECT_NAME": "STARLINK-35467", "OBJECT_ID": "2025-253AA", "EPOCH": "2025-12-05T03:59:44.849184", "MEAN_MOTION": 15.4069433, "ECCENTRICITY": 0.00023831, "INCLINATION": 43.002, "RA_OF_ASC_NODE": 29.335, "ARG_OF_PERICENTER": 256.3336, "MEAN_ANOMALY": 103.7255, "EPHEMERIS_TYPE": 0, "CLASSIFICATION_TYPE": "U", "NORAD_CAT_ID": 66343, "ELEMENT_SET_NO": 999, "REV_AT_EPOCH": 575, "BSTAR": 0.0019501814, "MEAN_MOTION_DOT": 0.00082028, "MEAN_MOTION_DDOT": 0}, "tle": {"line1": "1 66343U 25253AA  25339.16649131  .00082028  00000+0  19502-2 0  9990", "line2": "2 66343  43.0020  29.3350 0002383 256.3336 103.7255 15.40694330  5754"}}, "geometry": {"type": "Point", "coordinates": [138.63671420400485, 40.74788103418879]}}, {"type": "Feature", "properties": {"norad_id": 66344, "name": "STARLINK-35511", "group": "last-30-days", "lat": -35.09307167315787, "lon": -23.181569924903613, "alt_km": 416.9999679679422, "timestamp": "2025-12-05T16:54:13.484349+00:00", "meta": {"OBJECT_NAME": "STARLINK-35511", "OBJECT_ID": "2025-253AB", "EPOCH": "2025-12-04T10:13:55.829568", "MEAN_MOTION": 15.50597049, "ECCENTRICITY": 0.0001448, "INCLINATION": 43.0011, "RA_OF_ASC_NODE": 33.2328, "ARG_OF_PERICENTER": 274.0444, "MEAN_ANOMALY": 86.0251, "EPHEMERIS_TYPE": 0, "CLASSIFICATION_TYPE": "U", "NORAD_CAT_ID": 66344, "ELEMENT_SET_NO": 999, "REV_AT_EPOCH": 564, "BSTAR": 0.00014218, "MEAN_MOTION_DOT": 8.013e-05, "MEAN_MOTION_DDOT": 0}, "tle": {"line1": "1 66344U 25253AB  25338.42634062  .00008013  00000+0  14218-3 0  9998", "line2": "2 66344  43.0011  33.2328 0001448 274.0444  86.0251 15.50597049  5649"}}, "geometry": {"type": "Point", "coordinates": [-23.181569924903613, -35.09307167315787]}}, {"type": "Feature", "properties": {"norad_id": 66345, "name": "STARLINK-35440", "group": "last-30-days", "lat": -32.06677501183071, "lon": -111.82468159505669, "alt_km": 446.35925242426947, "timestamp": "2025-12-05T16:54:13.484358+00:00", "meta": {"OBJECT_NAME": "STARLINK-35440", "OBJECT_ID": "2025-253AC", "EPOCH": "2025-12-05T06:00:02.000160", "MEAN_MOTION": 15.40625252, "ECCENTRICITY": 0.00010041, "INCLINATION": 43.0008, "RA_OF_ASC_NODE": 28.5498, "ARG_OF_PERICENTER": 254.7636, "MEAN_ANOMALY": 333.6402, "EPHEMERIS_TYPE": 0, "CLASSIFICATION_TYPE": "U", "NORAD_CAT_ID": 66345, "ELEMENT_SET_NO": 999, "REV_AT_EPOCH": 572, "BSTAR": 0.0011799878, "MEAN_MOTION_DOT": 0.00049183, "MEAN_MOTION_DDOT": 0}, "tle": {"line1": "1 66345U 25253AC  25339.25002315  .00049183  00000+0  11800-2 0  9997", "line2": "2 66345  43.0008  28.5498 0001004 254.7636 333.6402 15.40625252  5722"}}, "geometry": {"type": "Point", "coordinates": [-111.82468159505669, -32.06677501183071]}}, {"type": "Feature", "properties": {"norad_id": 66346, "name": "STARLINK-35482", "group": "last-30-days", "lat": -42.40304057129921, "lon": -52.698239682390856, "alt_km": 439.18428642472736, "timestamp": "2025-12-05T16:54:13.484368+00:00", "meta": {"OBJECT_NAME": "STARLINK-35482", "OBJECT_ID": "2025-253AD", "EPOCH": "2025-12-05T06:00:02.000160", "MEAN_MOTION": 15.45221306, "ECCENTRICITY": 0.00010512, "INCLINATION": 43.0008, "RA_OF_ASC_NODE": 28.4501, "ARG_OF_PERICENTER": 261.0081, "MEAN_ANOMALY": 8.9579, "EPHEMERIS_TYPE": 0, "CLASSIFICATION_TYPE": "U", "NORAD_CAT_ID": 66346, "ELEMENT_SET_NO": 999, "REV_AT_EPOCH": 582, "BSTAR": -0.047860482, "MEAN_MOTION_DOT": -0.02067847, "MEAN_MOTION_DDOT": 0}, "tle": {"line1": "1 66346U 25253AD  25339.25002315 -.02067847  00000+0 -47860-1 0  9993", "line2": "2 66346  43.0008  28.4501 0001051 261.0081   8.9579 15.45221306  5829"}}, "geometry": {"type": "Point", "coordinates": [-52.698239682390856, -42.40304057129921]}}]}